     2.100          NAVIGATION                              RINEX VERSION / TYPE
fic2rin                                 04/24/2011 00:20:30 PGM / RUN BY / DATE
                                                            END OF HEADER
 4 11  4 23 12  0  0.0  .961427576840D-04  .104591890704D-10  .000000000000D+00
     .730000000000D+02 -.396875000000D+01  .536558064083D-08  .267295183837D+01
    -.307336449623D-06  .957341224421D-02  .687129795551D-05  .515362912369D+04
     .561600000000D+06 -.726431608200D-07 -.242644595807D+00 -.122934579849D-06
     .938435767468D+00  .235437500000D+03  .719708458838D+00 -.817926927082D-08
    -.118576367753D-09  .100000000000D+01  .163200000000D+04  .000000000000D+00
     .240000000000D+01  .000000000000D+00 -.605359673500D-08  .730000000000D+02
     .554406000000D+06  .400000000000D+01
 5 11  4 23 12  0  0.0 -.149015802890D-03 -.579802872380D-11  .000000000000D+00
     .370000000000D+02  .404375000000D+02  .471626788006D-08  .139828917611D+01
     .232830643654D-05  .224153511226D-02  .909902155399D-05  .515365502548D+04
     .561600000000D+06  .894069671631D-07  .801144308476D+00  .391155481339D-07
     .954775242861D+00  .200625000000D+03  .252592685979D+00 -.804283501636D-08
    -.390373403476D-09  .100000000000D+01  .163200000000D+04  .000000000000D+00
     .240000000000D+01  .000000000000D+00 -.977888703346D-08  .370000000000D+02
     .554406000000D+06  .400000000000D+01
 6 11  4 23 12  0  0.0  .624234788120D-03 -.104478203866D-09  .000000000000D+00
     .400000000000D+02 -.268750000000D+02  .517592988397D-08  .168141982202D+01
    -.140815973282D-05  .670504081063D-02  .818446278572D-05  .515364606476D+04
     .561600000000D+06  .147148966789D-06 -.134428438926D+01  .186264514923D-08
     .935439468397D+00  .207906250000D+03 -.818512286962D+00 -.819784147300D-08
     .282868925483D-09  .100000000000D+01  .163200000000D+04  .000000000000D+00
     .340000000000D+01  .000000000000D+00 -.465661287308D-08  .400000000000D+02
     .554406000000D+06  .400000000000D+01
 7 11  4 23 12  0  0.0  .893557444215D-05  .102318153949D-11  .000000000000D+00
     .280000000000D+02 -.221875000000D+02  .418696011798D-08 -.204006282915D+01
    -.120513141155D-05  .431609200314D-02  .374950468540D-05  .515366469193D+04
     .561600000000D+06 -.223517417908D-07  .290651921475D+01 -.242143869400D-07
     .974515215739D+00  .315875000000D+03 -.312596962477D+01 -.806462163815D-08
     .146434671020D-10  .100000000000D+01  .163200000000D+04  .000000000000D+00
     .240000000000D+01  .000000000000D+00 -.107102096081D-07  .280000000000D+02
     .554406000000D+06  .400000000000D+01
 8 11  4 23 12  0  0.0  .780215486884D-05  .113686837722D-12  .000000000000D+00
     .115000000000D+03 -.385312500000D+02  .373158400688D-08 -.257291151239D+01
    -.196509063244D-05  .115156661486D-01  .414624810219D-05  .515359746170D+04
     .561600000000D+06 -.149011611938D-06  .298129340067D+01 -.819563865662D-07
     .996226009909D+00  .319500000000D+03 -.308028953961D+01 -.774925135885D-08
    -.139291516336D-10  .100000000000D+01  .163200000000D+04  .000000000000D+00
     .340000000000D+01  .000000000000D+00 -.465661287308D-08  .115000000000D+03
     .554406000000D+06  .400000000000D+01
10 11  4 23 12  0  0.0 -.722743570805D-04 -.909494701773D-12  .000000000000D+00
     .910000000000D+02  .411562500000D+02  .482091509618D-08  .165219571320D+01
     .217370688915D-05  .101302368566D-01  .938586890697D-05  .515360069275D+04
     .561600000000D+06 -.219792127609D-06  .825019811787D+00  .104308128357D-06
     .949712103870D+00  .196343750000D+03  .704311212406D+00 -.812569561070D-08
    -.365372362083D-09  .100000000000D+01  .163200000000D+04  .000000000000D+00
     .340000000000D+01  .000000000000D+00 -.279396772385D-08  .910000000000D+02
     .554406000000D+06  .400000000000D+01
11 11  4 23 12  0  0.0 -.144993420690D-03 -.306954461848D-11  .000000000000D+00
     .400000000000D+02  .528125000000D+01  .650741391705D-08 -.189524684809D+01
     .180676579475D-06  .117157188943D-01  .607222318649D-05  .515349877930D+04
     .561600000000D+06  .165775418282D-06 -.495520189662D+00 -.372529029846D-07
     .888072354887D+00  .219187500000D+03  .921529918951D+00 -.883036782026D-08
     .194650965137D-09  .100000000000D+01  .163200000000D+04  .000000000000D+00
     .240000000000D+01  .000000000000D+00 -.116415321827D-07  .400000000000D+02
     .554406000000D+06  .400000000000D+01
13 11  4 23 12  0  0.0  .273984391242D-03 -.147792889038D-11  .000000000000D+00
     .340000000000D+02  .668125000000D+02  .376479967616D-08  .451292940151D+00
     .340119004250D-05  .473127304576D-02  .633671879768D-05  .515361438179D+04
     .561600000000D+06 -.596046447754D-07  .193099258280D+01 -.633299350739D-07
     .989758308641D+00  .273687500000D+03  .181638430500D+01 -.787247077715D-08
    -.628597612185D-10  .100000000000D+01  .163200000000D+04  .000000000000D+00
     .240000000000D+01  .000000000000D+00 -.111758708954D-07  .340000000000D+02
     .554406000000D+06  .400000000000D+01
14 11  4 23 12  0  0.0  .145686790347D-03  .238742359215D-11  .000000000000D+00
     .590000000000D+02  .826875000000D+02  .396052211450D-08  .451709696253D+00
     .434182584286D-05  .564323144499D-02  .680051743984D-05  .515366081238D+04
     .561600000000D+06 -.651925802231D-07  .190700348390D+01  .465661287308D-07
     .982810956033D+00  .260812500000D+03 -.209999920313D+01 -.801640534403D-08
    -.439304013061D-10  .100000000000D+01  .163200000000D+04  .000000000000D+00
     .240000000000D+01  .000000000000D+00 -.884756445885D-08  .590000000000D+02
     .554406000000D+06  .400000000000D+01
15 11  4 23 12  0  0.0 -.133151654154D-03  .284217094304D-11  .000000000000D+00
     .830000000000D+02  .911562500000D+02  .468340936851D-08  .398293695903D-01
     .458955764771D-05  .340866053011D-02  .619702041149D-05  .515360731888D+04
     .561600000000D+06  .633299350739D-07  .183225520188D+01 -.745058059692D-08
     .950020892229D+00  .253468750000D+03 -.502560373200D-01 -.831713215622D-08
    -.582167106740D-10  .100000000000D+01  .163200000000D+04  .000000000000D+00
     .240000000000D+01  .000000000000D+00 -.977888703346D-08  .830000000000D+02
     .554406000000D+06  .400000000000D+01
16 11  4 23 12  0  0.0 -.167175196111D-03 -.272848410532D-11  .000000000000D+00
     .280000000000D+02 -.770312500000D+02  .404481133977D-08  .185435629528D+01
    -.391714274883D-05  .636333844159D-02  .762380659580D-05  .515379359627D+04
     .561600000000D+06  .372529029846D-08 -.230455410081D+01  .447034835815D-07
     .975856525827D+00  .241218750000D+03 -.137189250757D+00 -.781889711702D-08
     .450018745087D-10  .100000000000D+01  .163200000000D+04  .000000000000D+00
     .240000000000D+01  .000000000000D+00 -.977888703346D-08  .280000000000D+02
     .554406000000D+06  .400000000000D+01
17 11  4 23 12  0  0.0  .184362288564D-03  .000000000000D+00  .000000000000D+00
     .440000000000D+02 -.759375000000D+01  .466876590141D-08  .781581704175D+00
    -.527128577232D-06  .629115290940D-02  .876560807228D-05  .515374562836D+04
     .561600000000D+06 -.117346644402D-06 -.126172068977D+01  .745058059692D-07
     .960781864535D+00  .210656250000D+03 -.240269588975D+01 -.805783564120D-08
     .337514058815D-09  .100000000000D+01  .163200000000D+04  .000000000000D+00
     .240000000000D+01  .000000000000D+00 -.102445483208D-07  .440000000000D+02
     .554406000000D+06  .400000000000D+01
18 11  4 23 12  0  0.0  .133348163217D-03  .193267624127D-11  .000000000000D+00
     .800000000000D+01  .373437500000D+02  .508985487003D-08  .216345451830D+01
     .173784792423D-05  .121828006813D-01  .954605638981D-05  .515359570312D+04
     .561600000000D+06 -.154599547386D-06  .819969588899D+00 -.299885869026D-06
     .933619926000D+00  .181562500000D+03 -.225871957100D+01 -.815212528303D-08
    -.377872882779D-09  .100000000000D+01  .163200000000D+04  .000000000000D+00
     .240000000000D+01  .000000000000D+00 -.107102096081D-07  .800000000000D+01
     .554406000000D+06  .400000000000D+01
19 11  4 23 12  0  0.0 -.133354216814D-03 -.386535248253D-11  .000000000000D+00
     .330000000000D+02 -.168437500000D+02  .470769609444D-08  .130823238387D+00
    -.854954123497D-06  .723009929061D-02  .812113285065D-05  .515364670563D+04
     .561600000000D+06  .113621354103D-06 -.120756813942D+01 -.484287738800D-07
     .958313121520D+00  .221781250000D+03 -.501692833520D-02 -.812712424163D-08
     .328585115460D-09  .100000000000D+01  .163200000000D+04  .000000000000D+00
     .240000000000D+01  .000000000000D+00 -.149011611938D-07  .330000000000D+02
     .554406000000D+06  .400000000000D+01
20 11  4 23 12  0  0.0  .490122474730D-04  .113686837722D-12  .000000000000D+00
     .350000000000D+02  .323750000000D+02  .508985487003D-08  .254555756439D+01
     .159628689289D-05  .464158377144D-02  .867620110512D-05  .515368102646D+04
     .561600000000D+06 -.223517417908D-07  .766050134069D+00 -.689178705215D-07
     .933787683205D+00  .193781250000D+03  .128711819842D+01 -.820105589261D-08
    -.359657838335D-09  .100000000000D+01  .163200000000D+04  .000000000000D+00
     .240000000000D+01  .000000000000D+00 -.791624188423D-08  .350000000000D+02
     .554406000000D+06  .400000000000D+01
21 11  4 23 12  0  0.0 -.139458104968D-03 -.261479726760D-11  .000000000000D+00
     .770000000000D+02 -.196875000000D+01  .544486965782D-08 -.286576096972D+01
    -.309199094772D-06  .176946118008D-01  .720284879208D-05  .515376367188D+04
     .561600000000D+06  .596046447754D-07 -.234053597683D+00 -.348314642906D-06
     .932052665289D+00  .225531250000D+03 -.237726665186D+01 -.817284043161D-08
    -.278583032673D-10  .100000000000D+01  .163200000000D+04  .000000000000D+00
     .240000000000D+01  .000000000000D+00 -.116415321827D-07  .770000000000D+02
     .554406000000D+06  .400000000000D+01
